{
    "links": {
        "self": "http://www.neowsapp.com/rest/v1/neo/3836864?api_key=iIulBulltgU6a56xZRHN4H3l9WmuAYTsLGpBGhQ2"
    },
    "id": "3836864",
    "neo_reference_id": "3836864",
    "name": "(2018 XG3)",
    "designation": "2018 XG3",
    "nasa_jpl_url": "http://ssd.jpl.nasa.gov/sbdb.cgi?sstr=3836864",
    "absolute_magnitude_h": 26.3,
    "estimated_diameter": {
        "kilometers": {
            "estimated_diameter_min": 0.0146067964,
            "estimated_diameter_max": 0.0326617897
        },
        "meters": {
            "estimated_diameter_min": 14.6067964271,
            "estimated_diameter_max": 32.6617897446
        },
        "miles": {
            "estimated_diameter_min": 0.0090762397,
            "estimated_diameter_max": 0.020295089
        },
        "feet": {
            "estimated_diameter_min": 47.92256199,
            "estimated_diameter_max": 107.1581062656
        }
    },
    "is_potentially_hazardous_asteroid": false,
    "close_approach_data": [
        {
            "close_approach_date": "2018-12-02",
            "close_approach_date_full": "2018-Dec-02 17:24",
            "epoch_date_close_approach": 1543771440000,
            "relative_velocity": {
                "kilometers_per_second": "8.6410776496",
                "kilometers_per_hour": "31107.8795387228",
                "miles_per_hour": "19329.2265944914"
            },
            "miss_distance": {
                "astronomical": "0.0325378029",
                "lunar": "12.6572053281",
                "kilometers": "4867586.008319823",
                "miles": "3024577.6940386374"
            },
            "orbiting_body": "Earth"
        }
    ],
    "orbital_data": {
        "orbit_id": "2",
        "orbit_determination_date": "2018-12-19 07:17:37",
        "first_observation_date": "2018-12-10",
        "last_observation_date": "2018-12-17",
        "data_arc_in_days": 7,
        "observations_used": 22,
        "orbit_uncertainty": "8",
        "minimum_orbit_intersection": ".0210907",
        "jupiter_tisserand_invariant": "3.205",
        "epoch_osculation": "2458463.5",
        "eccentricity": ".598712545195296",
        "semi_major_axis": "2.476637728226371",
        "inclination": "2.410440630455557",
        "ascending_node_longitude": "266.4424105396047",
        "orbital_period": "1423.613683350672",
        "perihelion_distance": ".9938436504332644",
        "perihelion_argument": "145.3840900096652",
        "aphelion_distance": "3.959431806019476",
        "perihelion_time": "2458441.186233980892",
        "mean_anomaly": "5.642651416479931",
        "mean_motion": ".2528775918707737",
        "equinox": "J2000",
        "orbit_class": {
            "orbit_class_type": "APO",
            "orbit_class_description": "Near-Earth asteroid orbits which cross the Earth’s orbit similar to that of 1862 Apollo",
            "orbit_class_range": "a (semi-major axis) > 1.0 AU; q (perihelion) < 1.017 AU"
        }
    },
    "is_sentry_object": false
}